{"type": "FeatureCollection", "features": [ {"type": "Feature", "properties": {"norad_id": 43565, "name": "GSAT0222 (GALILEO 26)", "group": "gnss", "lat": 27.424968024134596, "lon": 147.03680166162042, "alt_km": 23227.648563570307, "timestamp": "2025-12-21T18:54:58.739890+00:00", "meta": {"OBJECT_NAME": "GSAT0222 (GALILEO 26)", "OBJECT_ID": "2018-060B", "EPOCH": "2025-12-20T23:05:42.344160", "MEAN_MOTION": 1.70475571, "ECCENTRICITY": 0.0006061, "INCLINATION": 57.2294, "RA_OF_ASC_NODE": 346.5987, "ARG_OF_PERICENTER": 266.4874, "MEAN_ANOMALY": 93.4525, "EPHEMERIS_TYPE": 0, "CLASSIFICATION_TYPE": "U", "NORAD_CAT_ID": 43565, "ELEMENT_SET_NO": 999, "REV_AT_EPOCH": 4617, "BSTAR": 0, "MEAN_MOTION_DOT": -6.8e-07, "MEAN_MOTION_DDOT": 0}, "tle": {"line1": "1 43565U 18060B   25354.96229565 -.00000068  00000+0  00000+0 0  9994", "line2": "2 43565  57.2294 346.5987 0006061 266.4874  93.4525  1.70475571 46179"}}, "geometry": {"type": "Point", "coordinates": [147.03680166162042, 27.424968024134596]}}, {"type": "Feature", "properties": {"norad_id": 43566, "name": "GSAT0219 (GALILEO 23)", "group": "gnss", "lat": 9.358892726078743, "lon": -7.337782549512746, "alt_km": 23218.41109910558, "timestamp": "2025-12-21T18:54:58.739903+00:00", "meta": {"OBJECT_NAME": "GSAT0219 (GALILEO 23)", "OBJECT_ID": "2018-060C", "EPOCH": "2025-12-18T20:05:25.027008", "MEAN_MOTION": 1.70475846, "ECCENTRICITY": 0.00058667, "INCLINATION": 57.2292, "RA_OF_ASC_NODE": 346.6575, "ARG_OF_PERICENTER": 289.8664, "MEAN_ANOMALY": 70.0835, "EPHEMERIS_TYPE": 0, "CLASSIFICATION_TYPE": "U", "NORAD_CAT_ID": 43566, "ELEMENT_SET_NO": 999, "REV_AT_EPOCH": 4611, "BSTAR": 0, "MEAN_MOTION_DOT": -7.4e-07, "MEAN_MOTION_DDOT": 0}, "tle": {"line1": "1 43566U 18060C   25352.83709522 -.00000074  00000+0  00000+0 0  9992", "line2": "2 43566  57.2292 346.6575 0005866 289.8664  70.0835  1.70475846 46114"}}, "geometry": {"type": "Point", "coordinates": [-7.337782549512746, 9.358892726078743]}}, {"type": "Feature", "properties": {"norad_id": 43567, "name": "GSAT0220 (GALILEO 24)", "group": "gnss", "lat": -43.839109774403205, "lon": -155.21551879338966, "alt_km": 23216.21612240477, "timestamp": "2025-12-21T18:54:58.739914+00:00", "meta": {"OBJECT_NAME": "GSAT0220 (GALILEO 24)", "OBJECT_ID": "2018-060D", "EPOCH": "2025-12-19T15:28:13.770912", "MEAN_MOTION": 1.70475932, "ECCENTRICITY": 0.000607, "INCLINATION": 57.2288, "RA_OF_ASC_NODE": 346.6359, "ARG_OF_PERICENTER": 288.3471, "MEAN_ANOMALY": 71.5983, "EPHEMERIS_TYPE": 0, "CLASSIFICATION_TYPE": "U", "NORAD_CAT_ID": 43567, "ELEMENT_SET_NO": 999, "REV_AT_EPOCH": 4611, "BSTAR": 0, "MEAN_MOTION_DOT": -7.2e-07, "MEAN_MOTION_DDOT": 0}, "tle": {"line1": "1 43567U 18060D   25353.64460383 -.00000072  00000+0  00000+0 0  9990", "line2": "2 43567  57.2288 346.6359 0006070 288.3471  71.5983  1.70475932 46114"}}, "geometry": {"type": "Point", "coordinates": [-155.21551879338966, -43.839109774403205]}}, {"type": "Feature", "properties": {"norad_id": 43581, "name": "BEIDOU-3 M5 (C23)", "group": "gnss", "lat": -53.442059760597544, "lon": 110.4307253879468, "alt_km": 21533.477619865615, "timestamp": "2025-12-21T18:54:58.739925+00:00", "meta": {"OBJECT_NAME": "BEIDOU-3 M5 (C23)", "OBJECT_ID": "2018-062A", "EPOCH": "2025-12-20T20:06:28.321920", "MEAN_MOTION": 1.86228978, "ECCENTRICITY": 0.00019384, "INCLINATION": 54.0899, "RA_OF_ASC_NODE": 188.3678, "ARG_OF_PERICENTER": 1.5281, "MEAN_ANOMALY": 358.5256, "EPHEMERIS_TYPE": 0, "CLASSIFICATION_TYPE": "U", "NORAD_CAT_ID": 43581, "ELEMENT_SET_NO": 999, "REV_AT_EPOCH": 5031, "BSTAR": 0, "MEAN_MOTION_DOT": 9.5e-07, "MEAN_MOTION_DDOT": 0}, "tle": {"line1": "1 43581U 18062A   25354.83782780  .00000095  00000+0  00000+0 0  9992", "line2": "2 43581  54.0899 188.3678 0001938   1.5281 358.5256  1.86228978 50311"}}, "geometry": {"type": "Point", "coordinates": [110.4307253879468, -53.442059760597544]}}, {"type": "Feature", "properties": {"norad_id": 43582, "name": "BEIDOU-3 M6 (C24)", "group": "gnss", "lat": 7.2862214193645825, "lon": -166.35111074675171, "alt_km": 21510.43886114883, "timestamp": "2025-12-21T18:54:58.739938+00:00", "meta": {"OBJECT_NAME": "BEIDOU-3 M6 (C24)", "OBJECT_ID": "2018-062B", "EPOCH": "2025-12-20T16:49:14.112192", "MEAN_MOTION": 1.86229946, "ECCENTRICITY": 0.00078563, "INCLINATION": 54.0894, "RA_OF_ASC_NODE": 188.3615, "ARG_OF_PERICENTER": 48.1727, "MEAN_ANOMALY": 311.9483, "EPHEMERIS_TYPE": 0, "CLASSIFICATION_TYPE": "U", "NORAD_CAT_ID": 43582, "ELEMENT_SET_NO": 999, "REV_AT_EPOCH": 5031, "BSTAR": 0, "MEAN_MOTION_DOT": 9.6e-07, "MEAN_MOTION_DDOT": 0}, "tle": {"line1": "1 43582U 18062B   25354.70085778  .00000096  00000+0  00000+0 0  9993", "line2": "2 43582  54.0894 188.3615 0007856  48.1727 311.9483  1.86229946 50316"}}, "geometry": {"type": "Point", "coordinates": [-166.35111074675171, 7.2862214193645825]}}, {"type": "Feature", "properties": {"norad_id": 43602, "name": "BEIDOU-3 M12 (C26)", "group": "gnss", "lat": 38.85616176489622, "lon": -137.33782504617227, "alt_km": 21498.13369200577, "timestamp": "2025-12-21T18:54:58.739950+00:00", "meta": {"OBJECT_NAME": "BEIDOU-3 M12 (C26)", "OBJECT_ID": "2018-067A", "EPOCH": "2025-12-19T13:33:24.239232", "MEAN_MOTION": 1.86227856, "ECCENTRICITY": 0.00092481, "INCLINATION": 54.1835, "RA_OF_ASC_NODE": 187.1314, "ARG_OF_PERICENTER": 41.3287, "MEAN_ANOMALY": 318.7989, "EPHEMERIS_TYPE": 0, "CLASSIFICATION_TYPE": "U", "NORAD_CAT_ID": 43602, "ELEMENT_SET_NO": 999, "REV_AT_EPOCH": 4977, "BSTAR": 0, "MEAN_MOTION_DOT": 1.01e-06, "MEAN_MOTION_DDOT": 0}, "tle": {"line1": "1 43602U 18067A   25353.56486388  .00000101  00000+0  00000+0 0  9993", "line2": "2 43602  54.1835 187.1314 0009248  41.3287 318.7989  1.86227856 49773"}}, "geometry": {"type": "Point", "coordinates": [-137.33782504617227, 38.85616176489622]}}, {"type": "Feature", "properties": {"norad_id": 43603, "name": "BEIDOU-3 M11 (C25)", "group": "gnss", "lat": -31.10337859963312, "lon": 161.17484611091515, "alt_km": 21528.78008291946, "timestamp": "2025-12-21T18:54:58.739960+00:00", "meta": {"OBJECT_NAME": "BEIDOU-3 M11 (C25)", "OBJECT_ID": "2018-067B", "EPOCH": "2025-12-20T18:33:33.170976", "MEAN_MOTION": 1.86227367, "ECCENTRICITY": 0.0005646, "INCLINATION": 54.1805, "RA_OF_ASC_NODE": 187.0544, "ARG_OF_PERICENTER": 37.4026, "MEAN_ANOMALY": 322.6873, "EPHEMERIS_TYPE": 0, "CLASSIFICATION_TYPE": "U", "NORAD_CAT_ID": 43603, "ELEMENT_SET_NO": 999, "REV_AT_EPOCH": 4982, "BSTAR": 0, "MEAN_MOTION_DOT": 9.5e-07, "MEAN_MOTION_DDOT": 0}, "tle": {"line1": "1 43603U 18067B   25354.77330059  .00000095  00000+0  00000+0 0  9993", "line2": "2 43603  54.1805 187.0544 0005646  37.4026 322.6873  1.86227367 49829"}}, "geometry": {"type": "Point", "coordinates": [161.17484611091515, -31.10337859963312]}}, {"type": "Feature", "properties": {"norad_id": 43622, "name": "BEIDOU-3 M13 (C32)", "group": "gnss", "lat": -8.65832120738294, "lon": 62.752433005580635, "alt_km": 21518.634483850325, "timestamp": "2025-12-21T18:54:58.739972+00:00", "meta": {"OBJECT_NAME": "BEIDOU-3 M13 (C32)", "OBJECT_ID": "2018-072A", "EPOCH": "2025-12-21T06:24:05.172192", "MEAN_MOTION": 1.86231118, "ECCENTRICITY": 0.00062116, "INCLINATION": 56.4663, "RA_OF_ASC_NODE": 68.5379, "ARG_OF_PERICENTER": 298.3671, "MEAN_ANOMALY": 61.6165, "EPHEMERIS_TYPE": 0, "CLASSIFICATION_TYPE": "U", "NORAD_CAT_ID": 43622, "ELEMENT_SET_NO": 999, "REV_AT_EPOCH": 4934, "BSTAR": 0, "MEAN_MOTION_DOT": -3.6e-07, "MEAN_MOTION_DDOT": 0}, "tle": {"line1": "1 43622U 18072A   25355.26672653 -.00000036  00000+0  00000+0 0  9990", "line2": "2 43622  56.4663  68.5379 0006211 298.3671  61.6165  1.86231118 49349"}}, "geometry": {"type": "Point", "coordinates": [62.752433005580635, -8.65832120738294]}}, {"type": "Feature", "properties": {"norad_id": 43623, "name": "BEIDOU-3 M14 (C33)", "group": "gnss", "lat": 55.1564147478855, "lon": 140.54964864255766, "alt_km": 21525.30022880105, "timestamp": "2025-12-21T18:54:58.739985+00:00", "meta": {"OBJECT_NAME": "BEIDOU-3 M14 (C33)", "OBJECT_ID": "2018-072B", "EPOCH": "2025-12-20T14:17:08.133792", "MEAN_MOTION": 1.86231122, "ECCENTRICITY": 0.00035209, "INCLINATION": 56.4674, "RA_OF_ASC_NODE": 68.5539, "ARG_OF_PERICENTER": 328.1178, "MEAN_ANOMALY": 31.9036, "EPHEMERIS_TYPE": 0, "CLASSIFICATION_TYPE": "U", "NORAD_CAT_ID": 43623, "ELEMENT_SET_NO": 999, "REV_AT_EPOCH": 4932, "BSTAR": 0, "MEAN_MOTION_DOT": -4.2e-07, "MEAN_MOTION_DDOT": 0}, "tle": {"line1": "1 43623U 18072B   25354.59523303 -.00000042  00000+0  00000+0 0  9990", "line2": "2 43623  56.4674  68.5539 0003520 328.1178  31.9036  1.86231122 49324"}}, "geometry": {"type": "Point", "coordinates": [140.54964864255766, 55.1564147478855]}}, {"type": "Feature", "properties": {"norad_id": 43647, "name": "BEIDOU-3 M16 (C35)", "group": "gnss", "lat": -20.806924164935012, "lon": -69.68425746966278, "alt_km": 21516.415539132227, "timestamp": "2025-12-21T18:54:58.739996+00:00", "meta": {"OBJECT_NAME": "BEIDOU-3 M16 (C35)", "OBJECT_ID": "2018-078A", "EPOCH": "2025-12-21T06:57:26.662752", "MEAN_MOTION": 1.86232383, "ECCENTRICITY": 0.00073912, "INCLINATION": 54.254, "RA_OF_ASC_NODE": 306.2225, "ARG_OF_PERICENTER": 20.1589, "MEAN_ANOMALY": 339.8673, "EPHEMERIS_TYPE": 0, "CLASSIFICATION_TYPE": "U", "NORAD_CAT_ID": 43647, "ELEMENT_SET_NO": 999, "REV_AT_EPOCH": 4884, "BSTAR": 0, "MEAN_MOTION_DOT": -6.2e-07, "MEAN_MOTION_DDOT": 0}, "tle": {"line1": "1 43647U 18078A   25355.28989193 -.00000062  00000+0  00000+0 0  9994", "line2": "2 43647  54.2540 306.2225 0007391  20.1589 339.8673  1.86232383 48840"}}, "geometry": {"type": "Point", "coordinates": [-69.68425746966278, -20.806924164935012]}}]}